TYVAK-182A              
1 48271U 21034D   26068.71131789  .00007163  00000+0  50673-3 0  9991
2 48271  97.5843 129.3711 0004862 316.5650  43.5193 15.05150420264864
STARLINK-34654          
1 64858U 25152S   26068.83382394  .00002859  00000+0  20227-3 0  9997
2 64858  97.6015 285.7132 0001812  90.5043 269.6392 15.05650765 35445
